ORBCOMM FM05 [-]        
1 25117U 97084F   24064.08040303  .00003158  00000+0  99119-3 0  9996
2 25117  45.0148  98.6041 0002672 332.6397  27.4312 14.42268422373599
ORBCOMM FM06 [+]        
1 25118U 97084G   24063.41952685  .00002170  00000+0  69480-3 0  9999
2 25118  45.0139 101.9390 0001926 319.6882  55.0017 14.42261344373472
ORBCOMM FM07 [-]        
1 25119U 97084H   24064.37421136  .00002005  00000+0  64614-3 0  9999
2 25119  45.0136  97.8829 0003565 333.7351  26.3318 14.42194933373620
ORBCOMM FM03 [-]        
1 25158U 98007B   24064.10930788  .00001720  00000+0  68162-3 0  9992
2 25158 107.9791 251.7627 0047589 346.9103  13.0798 14.31898247356836
ORBCOMM FM04 [+]        
1 25159U 98007C   24064.11002989  .00001782  00000+0  70241-3 0  9996
2 25159 107.9776 254.6577 0043232 344.5527  15.4290 14.32153895356973
ORBCOMM FM17 [-]        
1 25413U 98046A   24063.79711143  .00001089  00000+0  44646-3 0  9994
2 25413  44.9958 313.6816 0002861  12.1599 347.9316 14.32869873335654
ORBCOMM FM18 [-]        
1 25414U 98046B   24063.57164429  .00001632  00000+0  61043-3 0  9994
2 25414  44.9924 243.2518 0004124  82.7935 277.3381 14.35539346336556
ORBCOMM FM19 [+]        
1 25415U 98046C   24064.25894138  .00001825  00000+0  67887-3 0  9994
2 25415  44.9933 241.3274 0002879  83.0444  87.6712 14.35379223336814
